COSMOS 2361             
1 25590U 98076A   24193.59399067  .00000074  00000+0  63750-4 0  9993
2 25590  82.9346   7.9298 0030122 269.2577 157.9008 13.73124741279861
COSMOS 2378             
1 26818U 01023A   24193.56262611  .00000049  00000+0  36450-4 0  9993
2 26818  82.9265  24.5814 0032259 210.6997 203.5032 13.74054086157936
COSMOS 2389             
1 27436U 02026A   24193.46818924  .00000071  00000+0  57141-4 0  9992
2 27436  82.9526 331.2988 0047652  69.7720 352.7160 13.75069640110125
COSMOS 2398             
1 27818U 03023A   24193.37966279  .00000085  00000+0  75710-4 0  9998
2 27818  82.9494 295.4003 0032671 114.5860 311.8895 13.72301671 56930
COSMOS 2407             
1 28380U 04028A   24193.59222332  .00000062  00000+0  47183-4 0  9996
2 28380  82.9588 237.3278 0040543  66.8788  43.0723 13.76217819  2820
COSMOS 2414             
1 28521U 05002A   24193.59237407  .00000079  00000+0  53136-4 0  9998
2 28521  82.9479 217.2685 0040262 179.2466 180.8766 13.87781870985973
COSMOS 2429             
1 32052U 07038A   24193.56050800  .00000072  00000+0  59235-4 0  9999
2 32052  82.9812   5.9237 0039416  47.4310 313.0161 13.75059721844676
COSMOS 2454             
1 35635U 09039A   24193.57082603  .00000074  00000+0  46944-4 0  9994
2 35635  82.9549 202.2312 0020598 116.3368   3.8510 13.89810717759389
COSMOS 2463             
1 36519U 10017A   24193.57138715  .00000056  00000+0  45834-4 0  9997
2 36519  82.9594  48.1393 0034893 288.8359 128.7855 13.71565345711208
